1 36106U 09067A   20228.86490010 -.00000186 +00000-0 +00000-0 0  9996
2 36106 000.0202 099.7079 0002105 057.2416 204.2784 01.00268520019928
1 36106U 09067A   20229.04538356 -.00000187  00000-0  00000+0 0  9993
2 36106   0.0211 101.1068 0002098  56.0625 269.2102  1.00268444 39230
1 36106U 09067A   20229.43917675 -.00000188 +00000-0 +00000-0 0  9993
2 36106 000.0220 102.5862 0002105 055.3207 050.6247 01.00268298019938
1 36106U 09067A   20229.85465925 -.00000189  00000-0  00000+0 0  9995
2 36106   0.0229 104.8154 0002115  52.5260 201.1720  1.00268105 39247
1 36106U 09067A   20230.42618837 -.00000190  00000-0  00000+0 0  9994
2 36106   0.0125  83.5583 0002118  72.0101  49.2557  1.00269291 39241
1 36106U 09067A   20230.58035608 -.00000191 +00000-0 +00000-0 0  9992
2 36106 000.0250 108.3557 0002121 049.3974 102.7231 01.00267808019947
1 36106U 09067A   20230.94384264 -.00000192 +00000-0 +00000-0 0  9998
2 36106 000.0256 109.2022 0002133 047.8955 234.5900 01.00267642019948
1 36106U 09067A   20231.09016549 -.00000192  00000-0  00000+0 0  9992
2 36106   0.0261 110.2452 0002127  46.7049 287.5574  1.00267580 39250
1 36106U 09067A   20231.41577178 -.00000192  00000-0  00000+0 0  9998
2 36106   0.0262 110.8125 0001999  45.8741  45.3524  1.00264410 39253
1 36106U 09067A   20231.61899296 -.00000193 +00000-0 +00000-0 0  9990
2 36106 000.0165 094.0959 0001830 057.1556 124.1468 01.00267987019957
1 36106U 09067A   20231.70036372 -.00000193  00000-0  00000+0 0  9997
2 36106   0.0269 112.3797 0001853  50.6057 141.7882  1.00267652 39254
1 36106U 09067A   20232.13313203 -.00000195  00000-0  00000+0 0  9998
2 36106   0.0182  96.5218 0001471  48.3775 316.1061  1.00273031 39262
1 36106U 09067A   20232.52578626 -.00000196 +00000-0 +00000-0 0  9995
2 36106 000.0195 106.3590 0001537 047.3590 089.0274 01.00273390019961
1 36106U 09067A   20232.88474703 -.00000197 +00000-0 +00000-0 0  9996
2 36106 000.0203 105.1583 0001544 045.3032 221.8653 01.00273385019968
1 36106U 09067A   20233.42480012 -.00000198  00000-0  00000+0 0  9997
2 36106   0.0211 103.0512 0001542  46.4677  57.7619  1.00273337 39272
1 36106U 09067A   20233.75535785 -.00000198 +00000-0 +00000-0 0  9992
2 36106 000.0209 103.1005 0001568 046.5880 176.9209 01.00273250019970
1 36106U 09067A   20234.61798178 -.00000199 +00000-0 +00000-0 0  9996
2 36106 000.0177 100.8649 0001598 048.7726 128.3712 01.00273021019985
1 36106U 09067A   20234.61798178 -.00000199  00000-0  00000+0 0  9995
2 36106   0.0177 100.8649 0001598  48.7726 128.3712  1.00273021 39280
1 36106U 09067A   20234.82284588 -.00000199 +00000-0 +00000-0 0  9994
2 36106 000.0188 105.5962 0001615 044.3890 201.9774 01.00272976019985
1 36106U 09067A   20235.46890098 -.00000200 +00000-0 +00000-0 0  9997
2 36106 000.0164 105.9652 0001629 043.5243 075.6924 01.00272839019999
1 36106U 09067A   20235.75608163 -.00000200  00000-0  00000+0 0  9998
2 36106   0.0151 101.4414 0001650  48.4180 178.9919  1.00272784 39295
1 36106U 09067A   20235.82786476 -.00000200 +00000-0 +00000-0 0  9991
2 36106 000.0158 104.5238 0001655 045.4280 204.8124 01.00272773019993
1 36106U 09067A   20236.47384910 -.00000201 +00000-0 +00000-0 0  9991
2 36106 000.0115 101.6832 0001682 048.2504 078.0238 01.00272649020007
1 36106U 09067A   20236.76096429 -.00000201  00000-0  00000+0 0  9997
2 36106   0.0115 103.2027 0001702  47.1085 181.2917  1.00272605 39302
1 36106U 09067A   20236.84231062 -.00000201 +00000-0 +00000-0 0  9991
2 36106 000.0118 103.3788 0001706 047.0291 210.5601 01.00272601020001
1 36106U 09067A   20237.52833334 -.00000202 +00000-0 +00000-0 0  9998
2 36106 000.0135 103.0051 0001738 047.5631 098.0461 01.00272501020011
1 36106U 09067A   20237.79951247 -.00000202  00000-0  00000+0 0  9990
2 36106   0.0141 102.3842 0001752  48.6780 195.4447  1.00272464 39318
1 36106U 09067A   20237.84958615 -.00000202 +00000-0 +00000-0 0  9993
2 36106 000.0143 102.3915 0001755 048.7548 213.4367 01.00272463020015
1 36106U 09067A   20238.34020094 -.00000203 +00000-0 +00000-0 0  9991
2 36106 000.0154 102.2867 0001768 048.2152 031.1868 01.00272320020026
1 36106U 09067A   20238.77088354 -.00000202  00000-0  00000+0 0  9999
2 36106   0.0358 291.2673 0001806 220.6313 185.2577  1.00270145 39328
1 36106U 09067A   20239.04658791 -.00000203  00000-0  00000+0 0  9999
2 36106   0.0204 249.4649 0001859 260.2647 286.9528  1.00271465 39336
1 36106U 09067A   20239.34515331 -.00000204 +00000-0 +00000-0 0  9996
2 36106 000.0176 242.6089 0001855 267.8855 033.9648 01.00271208020032
1 36106U 09067A   20239.84763197 -.00000205 +00000-0 +00000-0 0  9997
2 36106 000.0076 171.0145 0001869 340.9774 213.8542 01.00271164020030
1 36106U 09067A   20240.05095457 -.00000205  00000-0  00000+0 0  9998
2 36106   0.0078 177.4342 0001880 334.7058 287.1021  1.00271197 39346
1 36106U 09067A   20240.70907352 -.00000206  00000-0  00000+0 0  9997
2 36106   0.0138 131.6372 0001985  26.4251 158.7570  1.00269407 39347
1 36106U 09067A   20240.85266375 -.00000206 +00000-0 +00000-0 0  9997
2 36106 000.0141 129.8388 0001983 028.1085 210.7061 01.00269385020045
1 36106U 09067A   20241.51165956 -.00000208 +00000-0 +00000-0 0  9996
2 36106 000.0166 129.3226 0002002 029.3100 087.9085 01.00269246020059
1 36106U 09067A   20241.78403940 -.00000208  00000-0  00000+0 0  9992
2 36106   0.0172 130.2709 0002014  30.1864 184.4090  1.00269161 39351
1 36106U 09067A   20241.87019880 -.00000208 +00000-0 +00000-0 0  9999
2 36106 000.0175 129.6541 0002009 031.5364 214.7782 01.00269150020054
1 36106U 09067A   20242.50365539 -.00000209 +00000-0 +00000-0 0  9996
2 36106 000.0102 144.7138 0001955 008.6155 091.2956 01.00270921020066
1 36106U 09067A   20242.75766417 -.00000208  00000-0  00000+0 0  9991
2 36106   0.0200 131.5427 0002028  32.2469 172.5402  1.00268889 39365
1 36106U 09067A   20242.84731219 -.00000209 +00000-0 +00000-0 0  9995
2 36106 000.0098 140.4322 0001941 013.3370 214.9096 01.00270835020068
1 36106U 09067A   20243.07793506 -.00000209  00000-0  00000+0 0  9997
2 36106   0.0105 143.6934 0001943  10.0015 298.2349  1.00270826 39373
1 36106U 09067A   20243.57116372 -.00000209 +00000-0 +00000-0 0  9993
2 36106 000.0223 132.3312 0002028 033.4480 104.2105 01.00268662020077
1 36106U 09067A   20243.86748494 -.00000209 +00000-0 +00000-0 0  9991
2 36106 000.0113 131.6812 0001969 023.2848 221.9907 01.00269735020079
1 36106U 09067A   20244.51360705 -.00000208 +00000-0 +00000-0 0  9998
2 36106 000.0136 130.4757 0001986 026.0752 093.6444 01.00269605020080
1 36106U 09067A   20244.78540602 -.00000207  00000-0  00000+0 0  9991
2 36106   0.0243 134.4947 0002041  35.3237 178.4919  1.00268312 39384
1 36106U 09067A   20245.01604729 -.00000207  00000-0  00000+0 0  9999
2 36106   0.0152 129.6285 0001988  28.2276 273.7115  1.00269491 39394
1 36106U 09067A   20245.51855126 -.00000207 +00000-0 +00000-0 0  9994
2 36106 000.0168 129.3500 0001997 029.9494 093.6624 01.00269354020097
1 36106U 09067A   20245.80568635 -.00000206 +00000-0 +00000-0 0  9991
2 36106 000.0257 135.6966 0002043 037.9575 182.9580 01.00268051020090
1 36106U 09067A   20246.09276313 -.00000205  00000-0  00000+0 0  9990
2 36106   0.0185 130.3376 0002000  30.3980 299.5059  1.00269194 39407
1 36106U 09067A   20246.52351140 -.00000204 +00000-0 +00000-0 0  9990
2 36106 000.0197 130.3083 0002007 031.7931 093.6313 01.00269058020105
1 36106U 09067A   20246.83772039 -.00000202 +00000-0 +00000-0 0  9996
2 36106 000.0265 136.1807 0002034 041.1211 191.8537 01.00267864020107
1 36106U 09067A   20247.09775250 -.00000201  00000-0  00000+0 0  9991
2 36106   0.0268 136.2298 0002020  41.3911 285.4009  1.00267842 39413
1 36106U 09067A   20247.70119076 -.00000200  00000-0  00000+0 0  9996
2 36106   0.0225 132.7747 0002109  29.1223 158.9644  1.00271263 39415
1 36106U 09067A   20247.92341079 -.00000200 +00000-0 +00000-0 0  9991
2 36106 000.0227 132.4746 0002111 029.5323 239.0737 01.00271321020117
1 36106U 09067A   20248.38983927 -.00000198 +00000-0 +00000-0 0  9992
2 36106 000.0236 133.4386 0002092 032.2951 043.7214 01.00271136020129
1 36106U 09067A   20248.74879250 -.00000197  00000-0  00000+0 0  9993
2 36106   0.0221 125.0305 0002044  46.1965 167.8058  1.00273320 39421
1 36106U 09067A   20249.46662176 -.00000195 +00000-0 +00000-0 0  9999
2 36106 000.0206 125.4101 0002021 047.3635 065.3886 01.00273154020138
1 36106U 09067A   20249.79649882 -.00000193  00000-0  00000+0 0  9991
2 36106   0.0207 124.5732 0002021  48.9160 183.7558  1.00273123 39440
1 36106U 09067A   20249.82757755 -.00000194 +00000-0 +00000-0 0  9996
2 36106 000.0200 124.5197 0002022 049.0149 194.9296 01.00273130020135
1 36106U 09067A   20250.17780865 -.00000193 +00000-0 +00000-0 0  9993
2 36106 000.0189 122.5593 0002020 053.9946 318.3402 01.00273032020149
1 36106U 09067A   20250.54330730 -.00000191  00000-0  00000+0 0  9993
2 36106   0.0179 124.9476 0002324  38.7623 103.1330  1.00272528 39446
1 36106U 09067A   20251.54826072 -.00000189 +00000-0 +00000-0 0  9991
2 36106 000.0120 114.5688 0002328 053.1985 101.8492 01.00271846020152
1 36106U 09067A   20251.83544137 -.00000188  00000-0  00000+0 0  9990
2 36106   0.0123 113.4472 0002321  54.9962 204.8414  1.00271762 39460
1 36106U 09067A   20252.48147361 -.00000188 +00000-0 +00000-0 0  9991
2 36106 000.0138 111.5328 0002310 058.6059 076.3537 01.00271571020164
1 36106U 09067A   20252.84036214 -.00000187 +00000-0 +00000-0 0  9994
2 36106 000.0148 110.2167 0002298 060.7489 205.0802 01.00271470020162
1 36106U 09067A   20253.12754262 -.00000187  00000-0  00000+0 0  9995
2 36106   0.0154 109.3802 0002296  61.9611 308.3722  1.00271387 39471
1 36106U 09067A   20253.62998420 -.00000187  00000-0  00000+0 0  9996
2 36106   0.0325 287.2379 0002258 245.7675 128.0816  1.00271387 39477
1 36106U 09067A   20253.84536968 -.00000187 +00000-0 +00000-0 0  9996
2 36106 000.0317 286.0659 0002250 247.5046 205.2676 01.00271385020177
1 36106U 09067A   20254.09841212 -.00000187 +00000-0 +00000-0 0  9995
2 36106 000.0291 278.4220 0002248 255.4959 296.2649 01.00271430020187
